HORYU-4                 
1 41340U 16012D   20135.19620347  .00000338  00000-0  18850-4 0  9995
2 41340  31.0040 189.9458 0013853 168.7723 191.3223 15.01484835232726
E-ST@R-II               
1 41459U 16025D   20134.19000431 -.00000090  00000-0  22358-6 0  9991
2 41459  98.0989 242.3494 0164277 330.8394  28.3764 15.06340115222139
AAUSAT 4                
1 41460U 16025E   20135.24274350  .00001187  00000-0  62252-4 0  9995
2 41460  98.0972 245.6651 0153132 316.3182  42.6025 15.08613797222484
BEESAT-4                
1 41619U 16040W   20135.21657363  .00000986  00000-0  43655-4 0  9996
2 41619  97.3219 195.5569 0009552 305.5366  54.4980 15.23933270204183
CANX-7                  
1 41788U 16059F   20135.25256020  .00007734  00000-0  10705-2 0  9998
2 41788  98.2515 222.2325 0027977  57.6120 302.7767 14.78048457194768
RAVAN                   
1 41849U 16067B   20134.88761365 -.00000059  00000-0  20591-6 0  9998
2 41849  97.9289 244.1603 0008509   4.5191 355.6107 14.98529846191446
CELTEE 1                
1 41850U 16067C   20135.25222960  .00000677  00000-0  63830-4 0  9991
2 41850  97.9244 242.3576 0008957  14.5052 345.6424 14.97172323191389
OPTICUBE 04             
1 41851U 16067D   20135.24356636  .00000636  00000-0  60707-4 0  9994
2 41851  97.9229 241.9867 0008973  15.5678 344.5817 14.96915418191365
AEROCUBE 8D             
1 41852U 16067E   20135.25925233  .00000167  00000-0  19818-4 0  9997
2 41852  97.9241 241.8364 0009920  14.8171 345.3339 14.96898750191349
AEROCUBE 8C             
1 41853U 16067F   20135.08947320  .00000099  00000-0  13933-4 0  9996
2 41853  97.9226 241.5724 0010032  14.0071 346.1426 14.96855753191316
PROMETHEUS 2-1          
1 41854U 16067G   20135.06630486 -.00000138  00000-0 -66668-5 0  9997
2 41854  97.9247 241.8564 0010631  14.2618 345.8901 14.97173758191323
PROMETHEUS 2-3          
1 41855U 16067H   20135.00013498 -.00000163  00000-0 -88247-5 0  9995
2 41855  97.9250 241.8202 0010835  14.6247 345.5285 14.97183857191317
INS-1B                  
1 41954U 17008G   20135.15505918  .00000937  00000-0  40718-4 0  9997
2 41954  97.3562 200.1668 0010607  67.3274 292.9084 15.24707645180142
BGUSAT                  
1 41999U 17008BD  20135.14494626  .00001687  00000-0  65598-4 0  9994
2 41999  97.3673 204.1110 0009681  76.2975 283.9342 15.27379612179717
DIDO-2                  
1 42000U 17008BE  20135.11131817  .00000567  00000-0  25954-4 0  9993
2 42000  97.3570 200.6415 0010189  83.3814 276.8583 15.24428059179537
PEASSS                  
1 42015U 17008BV  20135.17973172  .00000855  00000-0  36496-4 0  9996
2 42015  97.3592 202.2403 0008050  86.8052 273.4107 15.25548646180126
AL-FARABI 1             
1 42016U 17008BW  20135.15402458  .00001125  00000-0  46030-4 0  9995
2 42016  97.3621 203.2033 0007939  86.5052 273.7095 15.26371389180298
NAYIF-1 (EO-88)         
1 42017U 17008BX  20135.13365166  .00001142  00000-0  46616-4 0  9997
2 42017  97.3615 203.1944 0008010  86.0020 274.2134 15.26411797180314
UCLSAT                  
1 42765U 17036A   20135.20020863  .00000881  00000-0  39807-4 0  9991
2 42765  97.3036 190.3573 0012457 140.3493 219.8657 15.23457641161368
LITUANICASAT-2          
1 42768U 17036D   20135.12342334  .00001588  00000-0  68353-4 0  9998
2 42768  97.3090 190.2030 0016099 132.8005 227.4589 15.23952486160612
AALTO-1                 
1 42775U 17036L   20135.12960832  .00000546  00000-0  26993-4 0  9992
2 42775  97.3013 188.2025 0015095 135.3284 224.9172 15.21795149160459
URSA MAIOR              
1 42776U 17036M   20135.12298957  .00000628  00000-0  30452-4 0  9991
2 42776  97.3025 188.4660 0014913 135.0609 225.1837 15.21973523160462
COMPASS 2               
1 42777U 17036N   20135.14267540  .00001276  00000-0  55741-4 0  9996
2 42777  97.3080 190.6529 0013624 133.0056 227.2325 15.23828231160579
DIAMOND RED             
1 42783U 17036U   20135.11367031  .00000739  00000-0  34490-4 0  9997
2 42783  97.3036 189.5761 0013099 142.7384 217.4764 15.22777479160528
PEGASUS                 
1 42784U 17036V   20135.08715885  .00000839  00000-0  38394-4 0  9996
2 42784  97.3040 189.9506 0012965 141.8386 218.3771 15.23148944160548
DIAMOND GREEN           
1 42785U 17036W   20135.11247202  .00000754  00000-0  35174-4 0  9993
2 42785  97.3039 189.6093 0012981 143.2444 216.9686 15.22777370160598
DIAMOND BLUE            
1 42786U 17036X   20135.11167771  .00000746  00000-0  34811-4 0  9994
2 42786  97.3039 189.6043 0012811 143.3696 216.8419 15.22777681160594
NUDTSAT                 
1 42787U 17036Y   20135.10762246  .00001679  00000-0  71208-4 0  9999
2 42787  97.3087 191.2867 0011189 134.9036 225.3109 15.24427942160463
SUCHAI                  
1 42788U 17036Z   20135.12366876  .00001017  00000-0  45193-4 0  9991
2 42788  97.3049 190.5428 0012559 140.0342 220.1823 15.23686401160650
SKCUBE                  
1 42789U 17036AA  20135.10056807  .00000962  00000-0  43115-4 0  9990
2 42789  97.3043 190.3834 0012428 140.3525 219.8623 15.23533688160566
VZLUSAT-1               
1 42790U 17036AB  20135.09634767  .00001253  00000-0  53864-4 0  9993
2 42790  97.3067 191.2720 0012015 138.1846 222.0312 15.24414064160615
ROBUSTA-1B              
1 42792U 17036AD  20135.18992541  .00000945  00000-0  42178-4 0  9995
2 42792  97.3047 190.7110 0012009 140.1687 220.0434 15.23719991160609
CICERO 6                
1 42793U 17036AE  20135.09681246  .00000645  00000-0  30214-4 0  9998
2 42793  97.3022 190.0714 0011245 142.3984 217.8041 15.23090673160631
D-SAT                   
1 42794U 17036AF  20135.08800427  .00000061  00000-0  10498-4 0  9996
2 42794  97.4966 169.4413 0127699 119.3928 242.0112 14.91263938157577
CORVUS BC2              
1 42846U 17042X   20135.17252307  .00000176  00000-0  22567-4 0  9996
2 42846  97.5274  20.2678 0010603  39.7314 320.4681 14.92095884154297
CORVUS BC1              
1 42847U 17042Y   20135.17054078  .00000219  00000-0  26754-4 0  9992
2 42847  97.5277  20.4292 0010253  39.2807 320.9155 14.92196945154299
MIRATA                  
1 43015U 17073C   20135.18558748  .00000451  00000-0  40131-4 0  9991
2 43015  97.7204  48.7051 0253797 160.0537 201.0819 14.79591279134153
MAKERSAT 0              
1 43016U 17073D   20135.20465935  .00000305  00000-0  28894-4 0  9990
2 43016  97.7240  48.9099 0256535 160.9744 200.1271 14.79174578134140
DELLINGR (RBLE)         
1 43021U 98067NJ  20135.25962071  .00009821  00000-0  84928-4 0  9998
2 43021  51.6357  94.4756 0000889 352.2300   7.8683 15.69931645141494
AEROCUBE 7B (OCSD B)    
1 43042U 17071F   20135.24592332  .00002279  00000-0  59411-4 0  9994
2 43042  51.6375 234.3899 0004088 282.7456  77.3073 15.43403247137094
AEROCUBE 7C (OCSD C)    
1 43043U 17071G   20135.24872983  .00002230  00000-0  58371-4 0  9999
2 43043  51.6375 234.4235 0004325 287.4758  72.5755 15.43377788137062
CHEFSAT                 
1 43044U 17071H   20135.14726987  .00004206  00000-0  87534-4 0  9999
2 43044  51.6374 221.2537 0004266 294.7101  65.3443 15.47942975137231
ASGARDIA 1              
1 43049U 17071N   20135.30794932  .00002063  00000-0  54583-4 0  9994
2 43049  51.6387 233.3882 0002055 308.5437  51.5364 15.43432336137079
ISARA                   
1 43050U 17071P   20135.17238182  .00004255  00000-0  91245-4 0  9992
2 43050  51.6357 223.5596 0002149 310.4353  49.6447 15.47018892137200
PROPCUBE 2 (FAUNA)      
1 43052U 17071R   20135.17453884  .00002302  00000-0  59006-4 0  9992
2 43052  51.6381 232.5154 0002031 304.8132  55.2663 15.43869218137071
CORVUS BC3              
1 43118U 18004H   20135.13823669  .00000594  00000-0  27978-4 0  9994
2 43118  97.4453 205.6883 0010739 164.2392 195.9181 15.23319112129778
MICROMAS-2A             
1 43131U 18004W   20135.13934987  .00001406  00000-0  58894-4 0  9999
2 43131  97.4498 207.3003 0009694 162.1943 197.9637 15.25181666129863
SPACEBEE-4              
1 43139U 18004AE  20135.13612148  .00001995  00000-0  79391-4 0  9997
2 43139  97.4527 208.3967 0009163 162.1549 198.0013 15.26421600129920
SPACEBEE-3              
1 43140U 18004AF  20135.16580836  .00002465  00000-0  94967-4 0  9999
2 43140  97.4542 209.0588 0008979 160.2577 199.9011 15.27281524129962
SPACEBEE-2              
1 43141U 18004AG  20135.15209623  .00002727  00000-0  10383-3 0  9991
2 43141  97.4556 209.2821 0008991 159.7244 200.4354 15.27574675129979
SPACEBEE-1              
1 43142U 18004AH  20135.19316658  .00002949  00000-0  11093-3 0  9998
2 43142  97.4559 209.5636 0008975 159.3460 200.8144 15.27914831129982
CICERO 7                
1 43143U 18004AJ  20135.14148751  .00001255  00000-0  52800-4 0  9992
2 43143  97.4479 207.4918 0007654 168.7340 191.4071 15.25236378129882
GOMX-4B                 
1 43196U 18015E   20135.41102632  .00000303  00000-0  15362-4 0  9995
2 43196  97.4314 264.2167 0017515 222.1284 137.8609 15.24229862126713
GOMX-4A                 
1 43197U 18015F   20135.31150169  .00000534  00000-0  24642-4 0  9990
2 43197  97.4318 264.1972 0017738 222.3464 221.9799 15.24458631126713
1KUNS-PF                
1 43466U 98067NP  20135.25034000  .00182681  24876-4  37820-3 0  9998
2 43466  51.6257  72.1942 0003254 112.6227 247.5126 15.98784654115046
UBAKUSAT                
1 43467U 98067NQ  20135.27224184  .00018282  00000-0  13055-3 0  9993
2 43467  51.6323  97.4461 0001037  54.4130 305.6966 15.73844833114721
CUBERRT                 
1 43546U 98067NU  20135.20279768  .00008409  00000-0  66438-4 0  9996
2 43546  51.6343  97.0112 0002941 344.3438  15.7469 15.72369083104855
TEMPEST-D               
1 43547U 98067NV  20135.19086405  .00004567  00000-0  56950-4 0  9998
2 43547  51.6362 124.8047 0004355 295.8912  64.1633 15.62133595104162
RAINCUBE                
1 43548U 98067NW  20135.09533126  .00018172  00000-0  13666-3 0  9998
2 43548  51.6331 106.0145 0003702 348.1714  11.9197 15.72623869104857
